ORBCOMM FM24 [-]        
1 25478U 98053D   23253.25272112  .00001197  00000+0  46944-3 0  9995
2 25478  45.0090  82.5877 0000889 204.5573 155.5231 14.34602859304869
ORBCOMM FM25 [-]        
1 25479U 98053E   23253.21620716  .00001247  00000+0  48697-3 0  9992
2 25479  45.0081  80.9915 0003206 248.0068 112.0438 14.34594139304872
ORBCOMM FM26 [-]        
1 25480U 98053F   23253.21117773  .00000985  00000+0  39825-3 0  9999
2 25480  45.0077  74.2517 0005209 274.4073  85.6179 14.34190501304925
ORBCOMM FM27 [+]        
1 25481U 98053G   23252.50388693  .00001222  00000+0  47833-3 0  9995
2 25481  45.0063  84.6027 0000926  76.1541 283.9409 14.34561516304703
ORBCOMM FM28 [-]        
1 25482U 98053H   23253.40614466  .00001201  00000+0  46644-3 0  9992
2 25482  45.0087  19.6942 0003632 283.4581  76.5861 14.35073469305668
ORBCOMM FM30 [-]        
1 25980U 99065A   23252.29040920  .00000894  00000+0  36506-3 0  9996
2 25980  45.0316 263.8765 0006092 351.6837   8.3909 14.34310979241481
ORBCOMM FM31 [-]        
1 25981U 99065B   23253.44302212  .00001081  00000+0  43065-3 0  9997
2 25981  45.0227 252.3445 0002776   0.2618 359.8230 14.34353088242176
ORBCOMM FM32 [+]        
1 25982U 99065C   23253.10828960  .00000802  00000+0  33953-3 0  9999
2 25982  45.0159 265.9293 0004345  19.8031 340.2983 14.33295298241941
